DUBAISAT-1              
1 35682U 09041B   26195.35707883  .00000386  00000+0  64658-4 0  9991
2 35682  98.0083 328.3225 0009974 351.4513   8.6524 14.75165937909102
OCEANSAT-2              
1 35931U 09051A   26195.57871992 -.00000107  00000+0 -47604-4 0  9991
2 35931  98.2319 179.6954 0017306 155.2557 204.9443 13.99656053883162
WORLDVIEW-2 (WV-2)      
1 35946U 09055A   26195.58063414  .00000037  00000+0  26842-4 0  9995
2 35946  98.4757 268.6573 0005291 131.3483 228.8160 14.37906807879585
SMOS                    
1 36036U 09059A   26195.50143114  .00000137  00000+0  57658-4 0  9998
2 36036  98.4427  22.4360 0001146  95.7390 264.3929 14.39735847877385
YAOGAN-7                
1 36110U 09069A   26195.64219642  .00000212  00000+0  36592-4 0  9995
2 36110  98.0034  81.3353 0023549 313.2260  46.6983 14.78035216893687
TANDEM-X                
1 36605U 10030A   26188.47915494  .00000386  00000+0  21566-4 0  9992
2 36605  97.4457 195.8973 0001887  94.3019 265.8431 15.19154052889726
CARTOSAT-2B             
1 36795U 10035A   26195.61106218  .00000153  00000+0  28084-4 0  9991
2 36795  97.9944 245.9830 0012569 100.7732 259.4895 14.78616437863903
YAOGAN-10               
1 36834U 10038A   26195.64314999  .00001394  00000+0  16806-3 0  9994
2 36834  97.8968 218.8284 0001637  84.1362  28.9934 14.85429316861280
COSMO-SKYMED 4          
1 37216U 10060A   26195.58298201 -.00000321  00000+0 -33730-4 0  9991
2 37216  97.8887  18.7864 0001450  85.7921 274.3458 14.82146523848621
RESOURCESAT-2           
1 37387U 11015A   26195.53831609 -.00000002  00000+0  19402-4 0  9996
2 37387  98.7633 262.7894 0011501 172.9063 187.2279 14.21599467790066
HAIYANG-2A              
1 37781U 11043A   26195.63810943 -.00000216  00000+0 -18564-3 0  9999
2 37781  99.3393 197.6861 0002652  28.1887 331.9405 13.73343485750425
RASAT                   
1 37791U 11044D   26195.58457943  .00000562  00000+0  10576-3 0  9999
2 37791  98.0588 286.5638 0021932 104.5332   8.9580 14.68193504797206
SRMSAT                  
1 37841U 11058D   26195.29196898  .00000343  00000+0  42066-4 0  9994
2 37841  19.9711 255.4136 0011787 141.3057 265.6885 14.11580990761657
PLEIADES 1A             
1 38012U 11076F   26195.64794800  .00000346  00000+0  84236-4 0  9999
2 38012  98.1976 270.3807 0001688  80.1446  48.9444 14.58547389775993
ZIYUAN 1-02C (ZY 1-02C) 
1 38038U 11079A   26195.64137528  .00000354  00000+0  13075-3 0  9999
2 38038  98.4068 262.3747 0005537 216.7117 287.6953 14.38235967763155
ARIRANG-3 (KOMPSAT-3)   
1 38338U 12025B   26195.61000551  .00000185  00000+0  45876-4 0  9993
2 38338  98.1184 152.5994 0006260  40.4286 319.7380 14.62228714755354
EXACTVIEW-1 (ADS-1B)    
1 38709U 12039C   26195.55463148  .00000033  00000+0  34102-4 0  9990
2 38709  98.9804 313.5665 0011958  93.1393 267.1154 14.24992102726609
SPOT 6                  
1 38755U 12047A   26195.63874362  .00000443  00000+0  10517-3 0  9991
2 38755  98.2115 262.6245 0001122  83.4497 276.6830 14.58539790737059
PLEIADES 1B             
1 39019U 12068A   26195.58873495  .00000434  00000+0  10316-3 0  9995
2 39019  98.1947 270.2619 0001605  79.1758 280.9622 14.58535263724844
GOKTURK 2               
1 39030U 12073A   26195.61263220 -.00000091  00000+0 -64762-5 0  9994
2 39030  97.6807  31.6685 0000903  91.3488 268.7825 14.75567223728555
LANDSAT 8               
1 39084U 13008A   26195.63003586  .00000160  00000+0  45677-4 0  9999
2 39084  98.2291 265.4378 0001343  94.1887 265.9465 14.57111653701896
SARAL                   
1 39086U 13009A   26195.62369109  .00000047  00000+0  33187-4 0  9994
2 39086  98.5555  21.8440 0001664 168.0149 192.1075 14.32895758699539
GAOFEN-1                
1 39150U 13018A   26195.64447475  .00000955  00000+0  14408-3 0  9993
2 39150  97.9093 267.1528 0017013 172.8014 187.3444 14.76520824712294
VNREDSAT 1              
1 39160U 13021B   26195.61650331  .00000573  00000+0  11562-3 0  9996
2 39160  97.9071 247.9781 0001602  79.3959 280.7425 14.64884577704309
ARIRANG-5 (KOMPSAT-5)   
1 39227U 13042A   26195.63395966  .00000531  00000+0  42291-4 0  9993
2 39227  97.6205  21.9492 0005455  59.6648 300.5117 15.04495072707983
SKYSAT-A                
1 39418U 13066C   26195.37220735  .00001529  00000+0  89550-4 0  9990
2 39418  97.3805 243.9032 0020414 216.4461 143.5382 15.13112646692594
DUBAISAT-2              
1 39419U 13066D   26195.56647645  .00001513  00000+0  95934-4 0  9991
2 39419  97.4573 184.9979 0009481 305.6933  54.3414 15.10372702690522
GPM-CORE                
1 39574U 14009C   26195.59299672  .00003346  00000+0  75844-4 0  9991
2 39574  64.9691 216.3049 0010977 261.8692  98.1204 15.45038812702042
SENTINEL-1A             
1 39634U 14016A   26195.45318618  .00000218  00000+0  55881-4 0  9997
2 39634  98.1778 202.5882 0001440  86.8409 273.2955 14.59201439653991
KAZEOSAT 1              
1 39731U 14024A   26195.63706475  .00000360  00000+0  12282-3 0  9991
2 39731  98.3204 267.3999 0001251  81.4942 278.6390 14.42038107642516
