OBJECT_NAME,OBJECT_ID,EPOCH,MEAN_MOTION,ECCENTRICITY,INCLINATION,RA_OF_ASC_NODE,ARG_OF_PERICENTER,MEAN_ANOMALY,EPHEMERIS_TYPE,CLASSIFICATION_TYPE,NORAD_CAT_ID,ELEMENT_SET_NO,REV_AT_EPOCH,BSTAR,MEAN_MOTION_DOT,MEAN_MOTION_DDOT
DUBAISAT-1,2009-041B,2026-07-14T08:34:11.610912,14.75165937,.00099745,98.0083,328.3225,351.4513,8.6524,0,U,35682,999,90910,.64657844E-4,.386E-5,0
OCEANSAT-2,2009-051A,2026-07-14T13:53:21.401088,13.99656053,.00173069,98.2319,179.6954,155.2557,204.9443,0,U,35931,999,88316,-.47604035E-4,-.107E-5,0
WORLDVIEW-2 (WV-2),2009-055A,2026-07-14T13:56:06.789696,14.37906807,.00052914,98.4757,268.6573,131.3483,228.8160,0,U,35946,999,87958,.26842154E-4,.37E-6,0
SMOS,2009-059A,2026-07-14T12:02:03.650496,14.39735847,.0001146,98.4427,22.4360,95.7390,264.3929,0,U,36036,999,87738,.57657615E-4,.137E-5,0
YAOGAN-7,2009-069A,2026-07-14T15:24:45.770688,14.78035216,.00235495,98.0034,81.3353,313.2260,46.6983,0,U,36110,999,89368,.36592194E-4,.212E-5,0
TANDEM-X,2010-030A,2026-07-07T11:29:58.986816,15.19154052,.0001887,97.4457,195.8973,94.3019,265.8431,0,U,36605,999,88972,.21566E-4,.386E-5,0
CARTOSAT-2B,2010-035A,2026-07-14T14:39:55.772352,14.78616437,.00125698,97.9944,245.9830,100.7732,259.4895,0,U,36795,999,86390,.28084353E-4,.153E-5,0
YAOGAN-10,2010-038A,2026-07-14T15:26:08.159136,14.85429316,.00016377,97.8968,218.8284,84.1362,28.9934,0,U,36834,999,86128,.16805629E-3,.1394E-4,0
COSMO-SKYMED 4,2010-060A,2026-07-14T13:59:29.645664,14.82146523,.00014506,97.8887,18.7864,85.7921,274.3458,0,U,37216,999,84862,-.3372987E-4,-.321E-5,0
RESOURCESAT-2,2011-015A,2026-07-14T12:55:10.510176,14.21599467,.00115016,98.7633,262.7894,172.9063,187.2279,0,U,37387,999,79006,.19402455E-4,-.2E-7,0
HAIYANG-2A,2011-043A,2026-07-14T15:18:52.654752,13.73343485,.00026527,99.3393,197.6861,28.1887,331.9405,0,U,37781,999,75042,-.18563903E-3,-.216E-5,0
RASAT,2011-044D,2026-07-14T14:01:47.662752,14.68193504,.00219327,98.0588,286.5638,104.5332,8.9580,0,U,37791,999,79720,.10576287E-3,.562E-5,0
SRMSAT,2011-058D,2026-07-14T07:00:26.119872,14.11580990,.0011787,19.9711,255.4136,141.3057,265.6885,0,U,37841,999,76165,.42066051E-4,.343E-5,0
PLEIADES 1A,2011-076F,2026-07-14T15:33:02.707200,14.58547389,.00016883,98.1976,270.3807,80.1446,48.9444,0,U,38012,999,77599,.84236113E-4,.346E-5,0
ZIYUAN 1-02C (ZY 1-02C),2011-079A,2026-07-14T15:23:34.824192,14.38235967,.00055374,98.4068,262.3747,216.7117,287.6953,0,U,38038,999,76315,.13074548E-3,.354E-5,0
ARIRANG-3 (KOMPSAT-3),2012-025B,2026-07-14T14:38:24.476064,14.62228714,.00062604,98.1184,152.5994,40.4286,319.7380,0,U,38338,999,75535,.45875656E-4,.185E-5,0
EXACTVIEW-1 (ADS-1B),2012-039C,2026-07-14T13:18:40.159872,14.24992102,.00119584,98.9804,313.5665,93.1393,267.1154,0,U,38709,999,72660,.34102363E-4,.33E-6,0
SPOT 6,2012-047A,2026-07-14T15:19:47.448768,14.58539790,.00011222,98.2115,262.6245,83.4497,276.6830,0,U,38755,999,73705,.10517125E-3,.443E-5,0
PLEIADES 1B,2012-068A,2026-07-14T14:07:46.699680,14.58535263,.00016051,98.1947,270.2619,79.1758,280.9622,0,U,39019,999,72484,.10316474E-3,.434E-5,0
GOKTURK 2,2012-073A,2026-07-14T14:42:11.422080,14.75567223,.0000903,97.6807,31.6685,91.3488,268.7825,0,U,39030,999,72855,-.6476151E-5,-.91E-6,0
LANDSAT 8,2013-008A,2026-07-14T15:07:15.098304,14.57111653,.00013437,98.2291,265.4378,94.1887,265.9465,0,U,39084,999,70189,.45676597E-4,.16E-5,0
SARAL,2013-009A,2026-07-14T14:58:06.910176,14.32895758,.00016642,98.5555,21.8440,168.0149,192.1075,0,U,39086,999,69953,.33186779E-4,.47E-6,0
GAOFEN-1,2013-018A,2026-07-14T15:28:02.618400,14.76520824,.00170133,97.9093,267.1528,172.8014,187.3444,0,U,39150,999,71229,.14408227E-3,.955E-5,0
VNREDSAT 1,2013-021B,2026-07-14T14:47:45.885984,14.64884577,.00016026,97.9071,247.9781,79.3959,280.7425,0,U,39160,999,70430,.11562211E-3,.573E-5,0
ARIRANG-5 (KOMPSAT-5),2013-042A,2026-07-14T15:12:54.114624,15.04495072,.00054557,97.6205,21.9492,59.6648,300.5117,0,U,39227,999,70798,.42291155E-4,.531E-5,0
SKYSAT-A,2013-066C,2026-07-14T08:55:58.715040,15.13112646,.00204148,97.3805,243.9032,216.4461,143.5382,0,U,39418,999,69259,.8955045E-4,.1529E-4,0
DUBAISAT-2,2013-066D,2026-07-14T13:35:43.565280,15.10372702,.00094811,97.4573,184.9979,305.6933,54.3414,0,U,39419,999,69052,.95933988E-4,.1513E-4,0
GPM-CORE,2014-009C,2026-07-14T14:13:54.916608,15.45038812,.00109775,64.9691,216.3049,261.8692,98.1204,0,U,39574,999,70204,.75844491E-4,.3346E-4,0
SENTINEL-1A,2014-016A,2026-07-14T10:52:35.285952,14.59201439,.00014408,98.1778,202.5882,86.8409,273.2955,0,U,39634,999,65399,.55881022E-4,.218E-5,0
KAZEOSAT 1,2014-024A,2026-07-14T15:17:22.394400,14.42038107,.00012515,98.3204,267.3999,81.4942,278.6390,0,U,39731,999,64251,.12281877E-3,.36E-5,0
